GLOBALSTAR M068         
1 32266U 07048D   25014.54469751 -.00000064  00000+0  22344-3 0  9999
2 32266  51.9897  50.6066 0001311 149.4970  14.5838 12.62813442798144
GLOBALSTAR M079         
1 37188U 10054A   25014.80130454 -.00000070  00000+0  19086-3 0  9998
2 37188  52.0021 246.7207 0000854  57.5170  20.1185 12.62270010657768
GLOBALSTAR M074         
1 37189U 10054B   25014.82828369 -.00000068  00000+0  19933-3 0  9998
2 37189  51.9997 245.9842 0001157  73.4294   7.0493 12.62261862657767
GLOBALSTAR M076         
1 37190U 10054C   25014.40077700 -.00000062  00000+0  23495-3 0  9991
2 37190  52.0011 247.4423 0001156  57.3105 119.9261 12.62276329657356
GLOBALSTAR M077         
1 37191U 10054D   25014.76986709 -.00000098  00000+0  31113-4 0  9995
2 37191  52.0043 203.1309 0001114  87.7930  26.3513 12.62270022658515
GLOBALSTAR M075         
1 37192U 10054E   25014.86747708 -.00000061  00000+0  23806-3 0  9990
2 37192  51.9955 288.3630 0000836  65.3183  14.4417 12.62271800657010
GLOBALSTAR M073         
1 37193U 10054F   25014.54450240 -.00000102  00000+0  11890-4 0  9995
2 37193  52.0030 203.0468 0001090  80.7310 329.9932 12.62262541658431
GLOBALSTAR M083         
1 37739U 11033A   25014.56405052 -.00000107  00000+0 -16766-4 0  9995
2 37739  51.9843 151.9271 0000779 109.4873 330.7361 12.62270741627451
GLOBALSTAR M088         
1 37740U 11033B   25014.55600088 -.00000077  00000+0  14714-3 0  9997
2 37740  51.9745  57.5723 0000355 138.2880  25.6237 12.62267359623285
GLOBALSTAR M091         
1 37741U 11033C   25014.48998517 -.00000084  00000+0  10881-3 0  9996
2 37741  52.0020  21.0548 0000124 197.3018 325.8172 12.62272711623773
GLOBALSTAR M085         
1 37742U 11033D   25014.84134920 -.00000086  00000+0  10149-3 0  9996
2 37742  51.9891 331.1597 0000260  38.9240 341.9316 12.62263856624821
GLOBALSTAR M081         
1 37743U 11033E   25014.24928435 -.00000094  00000+0  54503-4 0  9995
2 37743  51.9981 335.6524 0000484  17.6846  72.7408 12.62275243624403
GLOBALSTAR M089         
1 37744U 11033F   25014.21915269 -.00000065  00000+0  21478-3 0  9996
2 37744  51.9937 290.0043 0000982  58.7525  73.5093 12.62265061625247
GLOBALSTAR M084         
1 38040U 11080A   25014.61741597 -.00000118  00000+0 -78672-4 0  9992
2 38040  51.9992 155.9943 0001249  97.0085 346.1859 12.62273493603276
GLOBALSTAR M080         
1 38041U 11080B   25014.76433132 -.00000125  00000+0 -11891-3 0  9999
2 38041  52.0042 157.1037 0001279  82.4834  66.2807 12.62260465603555
GLOBALSTAR M082         
1 38042U 11080C   25014.61000566 -.00000097  00000+0  35847-4 0  9990
2 38042  52.0074 113.0009 0000885 151.2073 317.6676 12.62272002604102
GLOBALSTAR M092         
1 38043U 11080D   25014.81972917 -.00000091  00000+0  71868-4 0  9998
2 38043  52.0055 202.7314 0001156  91.9394  10.4278 12.62272146602793
GLOBALSTAR M090         
1 38044U 11080E   25014.55572644 -.00000098  00000+0  31167-4 0  9998
2 38044  51.9884 107.1728 0000679 133.9583 327.8173 12.62265593604211
GLOBALSTAR M086         
1 38045U 11080F   25014.75479580 -.00000101  00000+0  12866-4 0  9996
2 38045  51.9897 107.1052 0000584  38.4180 128.8514 12.62265575604288
GLOBALSTAR M097         
1 39072U 13005A   25014.42800871 -.00000088  00000+0  86377-4 0  9993
2 39072  52.0064  22.4925 0000093  60.9032 299.1844 12.62268925551399
GLOBALSTAR M093         
1 39073U 13005B   25014.40098559 -.00000103  00000+0  69881-5 0  9994
2 39073  51.9830  16.1194 0000116 358.9800   1.1066 12.62271842551340
GLOBALSTAR M094         
1 39074U 13005C   25014.16385240 -.00000070  00000+0  18838-3 0  9991
2 39074  51.9966 291.0746 0000572  35.8288 324.2617 12.62266949552923
GLOBALSTAR M096         
1 39075U 13005D   25014.33544313 -.00000091  00000+0  69189-4 0  9998
2 39075  52.0096 338.9455 0000214   7.1821 352.9049 12.62266621551862
GLOBALSTAR M078         
1 39076U 13005E   25014.54598982  .00000010  00000+0  63481-3 0  9991
2 39076  51.9882  63.0186 0001118 176.6428 183.4446 12.62268182550726
GLOBALSTAR M095         
1 39077U 13005F   25014.41442306 -.00000082  00000+0  12299-3 0  9997
2 39077  51.9809  60.6951 0000610 190.3962 169.6892 12.62265326550358
GLOBALSTAR M087         
1 52888U 22064A   25013.61639533 -.00000060  00000+0  21471-3 0  9996
2 52888  51.9760 204.8436 0010966 257.1208 102.8441 12.80131471125517
